[{"OBJECT_NAME":"YUNHAI-2 01F","OBJECT_ID":"2018-112G","EPOCH":"2026-03-09T22:32:39.167808","MEAN_MOTION":14.28981897,"ECCENTRICITY":0.00070201,"INCLINATION":50.0111,"RA_OF_ASC_NODE":288.9308,"ARG_OF_PERICENTER":341.2274,"MEAN_ANOMALY":18.8381,"EPHEMERIS_TYPE":0,"CLASSIFICATION_TYPE":"U","NORAD_CAT_ID":43915,"ELEMENT_SET_NO":999,"REV_AT_EPOCH":37411,"BSTAR":2.0666219e-5,"MEAN_MOTION_DOT":-1.09e-6,"MEAN_MOTION_DDOT":0},{"OBJECT_NAME":"CZ-6A DEB","OBJECT_ID":"2024-140PF","EPOCH":"2026-03-09T12:09:41.764896","MEAN_MOTION":13.38894787,"ECCENTRICITY":0.04395364,"INCLINATION":88.2744,"RA_OF_ASC_NODE":251.3916,"ARG_OF_PERICENTER":11.017,"MEAN_ANOMALY":350.0224,"EPHEMERIS_TYPE":0,"CLASSIFICATION_TYPE":"U","NORAD_CAT_ID":61113,"ELEMENT_SET_NO":999,"REV_AT_EPOCH":7549,"BSTAR":0.0003825614,"MEAN_MOTION_DOT":3.72e-6,"MEAN_MOTION_DDOT":0}]
